STARLINK-2022           
1 47643U 21012Z   23308.67826392 -.00000535  00000+0 -17003-4 0  9998
2 47643  53.0543 294.3995 0001856  87.6453 272.4749 15.06412216150728
